start=new Date('2022-06-04T00:00:00.000Z').valueOf();
sats=[{"FILE":"3479630","TLE_LINE1":"1 47726U 21017E   22154.69156119 -.00001011  00000-0 -48987-4 0  9994","MEAN_ELEMENT_THEORY":"SGP4","REV_AT_EPOCH":"7061","ELEMENT_SET_NO":"999","PERIOD":"95.592","COUNTRY_CODE":"US","MEAN_ANOMALY":"297.3163","INCLINATION":"53.0552","TIME_SYSTEM":"UTC","ARG_OF_PERICENTER":"62.8004","EPOCH":"2022-06-03T16:35:50.886816","DECAY_DATE":null,"APOAPSIS":"548.414","SITE":"AFETR","BSTAR":"-0.00004898700000","OBJECT_NAME":"STARLINK-2126","EPHEMERIS_TYPE":"0","ECCENTRICITY":"0.00017470","CLASSIFICATION_TYPE":"U","GP_ID":"205296355","OBJECT_TYPE":"PAYLOAD","CENTER_NAME":"EARTH","NORAD_CAT_ID":"47726","REF_FRAME":"TEME","LAUNCH_DATE":"2021-03-04","RCS_SIZE":"MEDIUM","OBJECT_ID":"2021-017E","PERIAPSIS":"545.995","TLE_LINE2":"2 47726  53.0552 254.2276 0001747  62.8004 297.3163 15.06402928 70617","MEAN_MOTION_DDOT":"0.0000000000000","RA_OF_ASC_NODE":"254.2276","SEMIMAJOR_AXIS":"6925.340","MEAN_MOTION_DOT":"-0.00001011","MEAN_MOTION":"15.06402928"},{"NORAD_CAT_ID":"47727","RCS_SIZE":"LARGE","LAUNCH_DATE":"2021-03-04","REF_FRAME":"TEME","RA_OF_ASC_NODE":"175.6461","TLE_LINE2":"2 47727  53.0541 175.6461 0001835  48.9991 311.1156 15.06393947 71726","MEAN_MOTION_DDOT":"0.0000000000000","PERIAPSIS":"545.961","OBJECT_ID":"2021-017F","MEAN_MOTION_DOT":"0.00000771","SEMIMAJOR_AXIS":"6925.367","MEAN_MOTION":"15.06393947","REV_AT_EPOCH":"7172","MEAN_ELEMENT_THEORY":"SGP4","TLE_LINE1":"1 47727U 21017F   22154.37734318  .00000771  00000-0  70652-4 0  9997","FILE":"3479192","INCLINATION":"53.0541","MEAN_ANOMALY":"311.1156","COUNTRY_CODE":"US","PERIOD":"95.593","ELEMENT_SET_NO":"999","EPHEMERIS_TYPE":"0","ECCENTRICITY":"0.00018350","OBJECT_NAME":"STARLINK-2129","SITE":"AFETR","DECAY_DATE":null,"BSTAR":"0.00007065200000","APOAPSIS":"548.503","EPOCH":"2022-06-03T09:03:22.450752","ARG_OF_PERICENTER":"48.9991","TIME_SYSTEM":"UTC","CENTER_NAME":"EARTH","OBJECT_TYPE":"PAYLOAD","GP_ID":"205264045","CLASSIFICATION_TYPE":"U"},{"CENTER_NAME":"EARTH","OBJECT_TYPE":"PAYLOAD","GP_ID":"205297856","CLASSIFICATION_TYPE":"U","ECCENTRICITY":"0.00013810","EPHEMERIS_TYPE":"0","OBJECT_NAME":"STARLINK-2131","SITE":"AFETR","DECAY_DATE":null,"BSTAR":"0.00006072600000","APOAPSIS":"548.190","ARG_OF_PERICENTER":"58.9349","EPOCH":"2022-06-03T15:58:41.405664","TIME_SYSTEM":"UTC","INCLINATION":"53.0535","MEAN_ANOMALY":"301.1775","COUNTRY_CODE":"US","PERIOD":"95.593","ELEMENT_SET_NO":"999","REV_AT_EPOCH":"7067","MEAN_ELEMENT_THEORY":"SGP4","FILE":"3479630","TLE_LINE1":"1 47728U 21017G   22154.66575701  .00000623  00000-0  60726-4 0  9996","SEMIMAJOR_AXIS":"6925.368","MEAN_MOTION_DOT":"0.00000623","MEAN_MOTION":"15.06393498","RA_OF_ASC_NODE":"254.3509","TLE_LINE2":"2 47728  53.0535 254.3509 0001381  58.9349 301.1775 15.06393498 70672","MEAN_MOTION_DDOT":"0.0000000000000","PERIAPSIS":"546.277","OBJECT_ID":"2021-017G","RCS_SIZE":"LARGE","LAUNCH_DATE":"2021-03-04","REF_FRAME":"TEME","NORAD_CAT_ID":"47728"},{"MEAN_ANOMALY":"299.0455","INCLINATION":"53.0557","COUNTRY_CODE":"US","ELEMENT_SET_NO":"999","PERIOD":"95.627","REV_AT_EPOCH":"7137","MEAN_ELEMENT_THEORY":"SGP4","TLE_LINE1":"1 47729U 21017H   22154.62835415  .00095730  00000-0  64542-2 0  9995","FILE":"3479630","CENTER_NAME":"EARTH","CLASSIFICATION_TYPE":"U","GP_ID":"205297607","OBJECT_TYPE":"PAYLOAD","OBJECT_NAME":"STARLINK-2132","EPHEMERIS_TYPE":"0","ECCENTRICITY":"0.00013610","DECAY_DATE":null,"SITE":"AFETR","APOAPSIS":"549.848","BSTAR":"0.00645420000000","ARG_OF_PERICENTER":"61.0670","EPOCH":"2022-06-03T15:04:49.798560","TIME_SYSTEM":"UTC","RCS_SIZE":"LARGE","LAUNCH_DATE":"2021-03-04","REF_FRAME":"TEME","NORAD_CAT_ID":"47729","SEMIMAJOR_AXIS":"6927.040","MEAN_MOTION_DOT":"0.00095730","MEAN_MOTION":"15.05848213","RA_OF_ASC_NODE":"199.7126","TLE_LINE2":"2 47729  53.0557 199.7126 0001361  61.0670 299.0455 15.05848213 71371","MEAN_MOTION_DDOT":"0.0000000000000","PERIAPSIS":"547.962","OBJECT_ID":"2021-017H"},{"MEAN_MOTION_DOT":"0.00038863","SEMIMAJOR_AXIS":"6926.106","MEAN_MOTION":"15.06152869","RA_OF_ASC_NODE":"269.2516","TLE_LINE2":"2 47730  53.0545 269.2516 0001457  56.7936 303.3192 15.06152869 70415","MEAN_MOTION_DDOT":"0.0000000000000","PERIAPSIS":"546.962","OBJECT_ID":"2021-017J","RCS_SIZE":"LARGE","LAUNCH_DATE":"2021-03-04","REF_FRAME":"TEME","NORAD_CAT_ID":"47730","CENTER_NAME":"EARTH","CLASSIFICATION_TYPE":"U","GP_ID":"205296855","OBJECT_TYPE":"PAYLOAD","OBJECT_NAME":"STARLINK-2140","ECCENTRICITY":"0.00014570","EPHEMERIS_TYPE":"0","BSTAR":"0.00263100000000","DECAY_DATE":null,"SITE":"AFETR","APOAPSIS":"548.980","ARG_OF_PERICENTER":"56.7936","EPOCH":"2022-06-03T16:30:50.916384","TIME_SYSTEM":"UTC","MEAN_ANOMALY":"303.3192","INCLINATION":"53.0545","COUNTRY_CODE":"US","ELEMENT_SET_NO":"999","PERIOD":"95.608","REV_AT_EPOCH":"7041","MEAN_ELEMENT_THEORY":"SGP4","FILE":"3479630","TLE_LINE1":"1 47730U 21017J   22154.68808931  .00038863  00000-0  26310-2 0  9991"},{"REV_AT_EPOCH":"7049","FILE":"3479630","TLE_LINE1":"1 47731U 21017K   22154.69432407  .00000172  00000-0  30423-4 0  9998","MEAN_ELEMENT_THEORY":"SGP4","COUNTRY_CODE":"US","MEAN_ANOMALY":"308.1167","INCLINATION":"53.0551","ELEMENT_SET_NO":"999","PERIOD":"95.592","DECAY_DATE":null,"SITE":"AFETR","APOAPSIS":"548.519","BSTAR":"0.00003042300000","OBJECT_NAME":"STARLINK-2141","EPHEMERIS_TYPE":"0","ECCENTRICITY":"0.00018910","TIME_SYSTEM":"UTC","ARG_OF_PERICENTER":"51.9993","EPOCH":"2022-06-03T16:39:49.599648","CLASSIFICATION_TYPE":"U","GP_ID":"205297105","OBJECT_TYPE":"PAYLOAD","CENTER_NAME":"EARTH","NORAD_CAT_ID":"47731","LAUNCH_DATE":"2021-03-04","RCS_SIZE":"LARGE","REF_FRAME":"TEME","MEAN_MOTION_DDOT":"0.0000000000000","TLE_LINE2":"2 47731  53.0551 264.2198 0001891  51.9993 308.1167 15.06401489 70494","RA_OF_ASC_NODE":"264.2198","OBJECT_ID":"2021-017K","PERIAPSIS":"545.899","MEAN_MOTION_DOT":"0.00000172","SEMIMAJOR_AXIS":"6925.344","MEAN_MOTION":"15.06401489"},{"SEMIMAJOR_AXIS":"6932.856","MEAN_MOTION_DOT":"0.00002220","MEAN_MOTION":"15.03953726","TLE_LINE2":"2 47732  53.0552 180.6787 0001345  81.6894 278.4246 15.03953726 71632","MEAN_MOTION_DDOT":"0.0000000000000","RA_OF_ASC_NODE":"180.6787","OBJECT_ID":"2021-017L","PERIAPSIS":"553.789","LAUNCH_DATE":"2021-03-04","RCS_SIZE":"LARGE","REF_FRAME":"TEME","NORAD_CAT_ID":"47732","OBJECT_TYPE":"PAYLOAD","GP_ID":"205262303","CLASSIFICATION_TYPE":"U","CENTER_NAME":"EARTH","DECAY_DATE":null,"BSTAR":"0.00017884000000","SITE":"AFETR","APOAPSIS":"555.654","EPHEMERIS_TYPE":"0","ECCENTRICITY":"0.00013450","OBJECT_NAME":"STARLINK-2142","TIME_SYSTEM":"UTC","EPOCH":"2022-06-03T09:16:35.448096","ARG_OF_PERICENTER":"81.6894","COUNTRY_CODE":"US","INCLINATION":"53.0552","MEAN_ANOMALY":"278.4246","PERIOD":"95.748","ELEMENT_SET_NO":"999","REV_AT_EPOCH":"7163","FILE":"3479192","TLE_LINE1":"1 47732U 21017L   22154.38652139  .00002220  00000-0  17884-3 0  9992","MEAN_ELEMENT_THEORY":"SGP4"},{"CENTER_NAME":"EARTH","CLASSIFICATION_TYPE":"U","OBJECT_TYPE":"PAYLOAD","GP_ID":"205298107","ARG_OF_PERICENTER":"51.7327","EPOCH":"2022-06-03T17:58:06.363264","TIME_SYSTEM":"UTC","OBJECT_NAME":"STARLINK-2143","ECCENTRICITY":"0.00018190","EPHEMERIS_TYPE":"0","DECAY_DATE":null,"SITE":"AFETR","APOAPSIS":"548.452","BSTAR":"0.00001220100000","ELEMENT_SET_NO":"999","PERIOD":"95.592","MEAN_ANOMALY":"308.3826","INCLINATION":"53.0557","COUNTRY_CODE":"US","MEAN_ELEMENT_THEORY":"SGP4","TLE_LINE1":"1 47733U 21017M   22154.74868476 -.00000100  00000-0  12201-4 0  9991","FILE":"3479630","REV_AT_EPOCH":"7040","MEAN_MOTION_DOT":"-0.00000100","SEMIMAJOR_AXIS":"6925.327","MEAN_MOTION":"15.06406928","PERIAPSIS":"545.933","OBJECT_ID":"2021-017M","RA_OF_ASC_NODE":"273.9644","MEAN_MOTION_DDOT":"0.0000000000000","TLE_LINE2":"2 47733  53.0557 273.9644 0001819  51.7327 308.3826 15.06406928 70402","REF_FRAME":"TEME","RCS_SIZE":"LARGE","LAUNCH_DATE":"2021-03-04","NORAD_CAT_ID":"47733"},{"MEAN_MOTION_DDOT":"0.0000000000000","TLE_LINE2":"2 47734  53.0558 264.1852 0001584  67.7093 292.4064 15.06392261 70505","RA_OF_ASC_NODE":"264.1852","OBJECT_ID":"2021-017N","PERIAPSIS":"546.140","MEAN_MOTION_DOT":"-0.00001309","SEMIMAJOR_AXIS":"6925.372","MEAN_MOTION":"15.06392261","NORAD_CAT_ID":"47734","LAUNCH_DATE":"2021-03-04","RCS_SIZE":"LARGE","REF_FRAME":"TEME","SITE":"AFETR","DECAY_DATE":null,"APOAPSIS":"548.334","BSTAR":"-0.00006902000000","ECCENTRICITY":"0.00015840","EPHEMERIS_TYPE":"0","OBJECT_NAME":"STARLINK-2144","TIME_SYSTEM":"UTC","ARG_OF_PERICENTER":"67.7093","EPOCH":"2022-06-03T16:50:27.654144","OBJECT_TYPE":"PAYLOAD","GP_ID":"205296356","CLASSIFICATION_TYPE":"U","CENTER_NAME":"EARTH","REV_AT_EPOCH":"7050","FILE":"3479630","TLE_LINE1":"1 47734U 21017N   22154.70170896 -.00001309  00000-0 -69020-4 0  9994","MEAN_ELEMENT_THEORY":"SGP4","COUNTRY_CODE":"US","INCLINATION":"53.0558","MEAN_ANOMALY":"292.4064","PERIOD":"95.593","ELEMENT_SET_NO":"999"},{"PERIAPSIS":"546.191","OBJECT_ID":"2021-017P","RA_OF_ASC_NODE":"189.7746","TLE_LINE2":"2 47735  53.0564 189.7746 0001864  42.2232 317.8900 15.06312519 71512","MEAN_MOTION_DDOT":"0.0000000000000","SEMIMAJOR_AXIS":"6925.617","MEAN_MOTION":"15.06312519","MEAN_MOTION_DOT":"-0.00011550","NORAD_CAT_ID":"47735","REF_FRAME":"TEME","RCS_SIZE":"LARGE","LAUNCH_DATE":"2021-03-04","EPOCH":"2022-06-03T13:40:06.533184","ARG_OF_PERICENTER":"42.2232","TIME_SYSTEM":"UTC","OBJECT_NAME":"STARLINK-2146","ECCENTRICITY":"0.00018640","EPHEMERIS_TYPE":"0","BSTAR":"-0.00075954000000","DECAY_DATE":null,"SITE":"AFETR","APOAPSIS":"548.773","CENTER_NAME":"EARTH","CLASSIFICATION_TYPE":"U","GP_ID":"205296606","OBJECT_TYPE":"PAYLOAD","MEAN_ELEMENT_THEORY":"SGP4","FILE":"3479630","TLE_LINE1":"1 47735U 21017P   22154.56952006 -.00011550  00000-0 -75954-3 0  9991","REV_AT_EPOCH":"7151","ELEMENT_SET_NO":"999","PERIOD":"95.598","MEAN_ANOMALY":"317.8900","INCLINATION":"53.0564","COUNTRY_CODE":"US"}];
